[{"OBJECT_NAME":"FENGYUN 1C DEB","OBJECT_ID":"1999-025BD","EPOCH":"2026-04-05T12:41:36.566880","MEAN_MOTION":14.07986589,"ECCENTRICITY":0.01265261,"INCLINATION":98.7768,"RA_OF_ASC_NODE":76.6997,"ARG_OF_PERICENTER":219.7022,"MEAN_ANOMALY":256.5636,"EPHEMERIS_TYPE":0,"CLASSIFICATION_TYPE":"U","NORAD_CAT_ID":29763,"ELEMENT_SET_NO":999,"REV_AT_EPOCH":98651,"BSTAR":0.00027881591,"MEAN_MOTION_DOT":4.67e-6,"MEAN_MOTION_DDOT":0},{"OBJECT_NAME":"FENGYUN 1C DEB","OBJECT_ID":"1999-025BF","EPOCH":"2026-04-05T19:36:41.105088","MEAN_MOTION":14.02168802,"ECCENTRICITY":0.0059157,"INCLINATION":98.82,"RA_OF_ASC_NODE":115.3943,"ARG_OF_PERICENTER":133.8524,"MEAN_ANOMALY":39.9379,"EPHEMERIS_TYPE":0,"CLASSIFICATION_TYPE":"U","NORAD_CAT_ID":29765,"ELEMENT_SET_NO":999,"REV_AT_EPOCH":98349,"BSTAR":7.4865e-5,"MEAN_MOTION_DOT":7.4e-7,"MEAN_MOTION_DDOT":0},{"OBJECT_NAME":"FENGYUN 1C DEB","OBJECT_ID":"1999-025BG","EPOCH":"2026-04-05T19:10:58.592928","MEAN_MOTION":13.97533001,"ECCENTRICITY":0.0146734,"INCLINATION":98.6956,"RA_OF_ASC_NODE":44.2819,"ARG_OF_PERICENTER":331.7954,"MEAN_ANOMALY":56.7344,"EPHEMERIS_TYPE":0,"CLASSIFICATION_TYPE":"U","NORAD_CAT_ID":29766,"ELEMENT_SET_NO":999,"REV_AT_EPOCH":97397,"BSTAR":0.0016974,"MEAN_MOTION_DOT":2.577e-5,"MEAN_MOTION_DDOT":0},{"OBJECT_NAME":"FENGYUN 1C DEB","OBJECT_ID":"1999-025BH","EPOCH":"2026-04-05T20:12:16.207200","MEAN_MOTION":14.04548102,"ECCENTRICITY":0.0329156,"INCLINATION":98.2092,"RA_OF_ASC_NODE":58.7212,"ARG_OF_PERICENTER":95.7535,"MEAN_ANOMALY":297.4612,"EPHEMERIS_TYPE":0,"CLASSIFICATION_TYPE":"U","NORAD_CAT_ID":29767,"ELEMENT_SET_NO":999,"REV_AT_EPOCH":97201,"BSTAR":0.002202,"MEAN_MOTION_DOT":5.678e-5,"MEAN_MOTION_DDOT":0},{"OBJECT_NAME":"FENGYUN 1C DEB","OBJECT_ID":"1999-025BK","EPOCH":"2026-04-05T14:26:10.266144","MEAN_MOTION":14.14145924,"ECCENTRICITY":0.0094827,"INCLINATION":99.0915,"RA_OF_ASC_NODE":159.9156,"ARG_OF_PERICENTER":168.5067,"MEAN_ANOMALY":191.8301,"EPHEMERIS_TYPE":0,"CLASSIFICATION_TYPE":"U","NORAD_CAT_ID":29769,"ELEMENT_SET_NO":999,"REV_AT_EPOCH":98290,"BSTAR":0.001838,"MEAN_MOTION_DOT":3.611e-5,"MEAN_MOTION_DDOT":0},{"OBJECT_NAME":"FENGYUN 1C DEB","OBJECT_ID":"1999-025BL","EPOCH":"2026-04-05T16:48:40.015296","MEAN_MOTION":14.20892026,"ECCENTRICITY":0.0060263,"INCLINATION":98.8341,"RA_OF_ASC_NODE":176.2687,"ARG_OF_PERICENTER":305.3377,"MEAN_ANOMALY":207.2521,"EPHEMERIS_TYPE":0,"CLASSIFICATION_TYPE":"U","NORAD_CAT_ID":29770,"ELEMENT_SET_NO":999,"REV_AT_EPOCH":98704,"BSTAR":0.0013639,"MEAN_MOTION_DOT":2.961e-5,"MEAN_MOTION_DDOT":0},{"OBJECT_NAME":"FENGYUN 1C DEB","OBJECT_ID":"1999-025BN","EPOCH":"2026-04-05T12:15:42.968736","MEAN_MOTION":14.03653108,"ECCENTRICITY":0.0136344,"INCLINATION":98.3836,"RA_OF_ASC_NODE":300.9423,"ARG_OF_PERICENTER":328.4021,"MEAN_ANOMALY":60.1823,"EPHEMERIS_TYPE":0,"CLASSIFICATION_TYPE":"U","NORAD_CAT_ID":29772,"ELEMENT_SET_NO":999,"REV_AT_EPOCH":97851,"BSTAR":0.0011569796,"MEAN_MOTION_DOT":1.934e-5,"MEAN_MOTION_DDOT":0},{"OBJECT_NAME":"FENGYUN 1C DEB","OBJECT_ID":"1999-025BP","EPOCH":"2026-04-05T09:22:02.219808","MEAN_MOTION":14.27847203,"ECCENTRICITY":0.00461656,"INCLINATION":99.0025,"RA_OF_ASC_NODE":257.3084,"ARG_OF_PERICENTER":322.7893,"MEAN_ANOMALY":66.8238,"EPHEMERIS_TYPE":0,"CLASSIFICATION_TYPE":"U","NORAD_CAT_ID":29773,"ELEMENT_SET_NO":999,"REV_AT_EPOCH":99819,"BSTAR":0.00045647771,"MEAN_MOTION_DOT":1.095e-5,"MEAN_MOTION_DDOT":0},{"OBJECT_NAME":"FENGYUN 1C DEB","OBJECT_ID":"1999-025BQ","EPOCH":"2026-04-05T20:48:44.969760","MEAN_MOTION":14.22854948,"ECCENTRICITY":0.0050539,"INCLINATION":99.091,"RA_OF_ASC_NODE":44.7127,"ARG_OF_PERICENTER":156.2227,"MEAN_ANOMALY":271.8622,"EPHEMERIS_TYPE":0,"CLASSIFICATION_TYPE":"U","NORAD_CAT_ID":29774,"ELEMENT_SET_NO":999,"REV_AT_EPOCH":99698,"BSTAR":0.00021751,"MEAN_MOTION_DOT":4.48e-6,"MEAN_MOTION_DDOT":0},{"OBJECT_NAME":"FENGYUN 1C DEB","OBJECT_ID":"1999-025BS","EPOCH":"2026-04-05T20:17:51.900576","MEAN_MOTION":14.07846283,"ECCENTRICITY":0.0022737,"INCLINATION":98.7581,"RA_OF_ASC_NODE":124.2656,"ARG_OF_PERICENTER":310.9793,"MEAN_ANOMALY":223.8214,"EPHEMERIS_TYPE":0,"CLASSIFICATION_TYPE":"U","NORAD_CAT_ID":29776,"ELEMENT_SET_NO":999,"REV_AT_EPOCH":98685,"BSTAR":0.00015416,"MEAN_MOTION_DOT":2.19e-6,"MEAN_MOTION_DDOT":0},{"OBJECT_NAME":"FENGYUN 1C DEB","OBJECT_ID":"1999-025BT","EPOCH":"2026-04-05T16:07:51.564576","MEAN_MOTION":13.92150276,"ECCENTRICITY":0.0092008,"INCLINATION":99.2612,"RA_OF_ASC_NODE":157.5705,"ARG_OF_PERICENTER":261.9789,"MEAN_ANOMALY":219.6573,"EPHEMERIS_TYPE":0,"CLASSIFICATION_TYPE":"U","NORAD_CAT_ID":29777,"ELEMENT_SET_NO":999,"REV_AT_EPOCH":97626,"BSTAR":0.00016041,"MEAN_MOTION_DOT":1.67e-6,"MEAN_MOTION_DDOT":0},{"OBJECT_NAME":"FENGYUN 1C DEB","OBJECT_ID":"1999-025BV","EPOCH":"2026-04-05T11:49:19.951392","MEAN_MOTION":14.13567496,"ECCENTRICITY":0.00627859,"INCLINATION":98.6747,"RA_OF_ASC_NODE":108.3315,"ARG_OF_PERICENTER":199.4239,"MEAN_ANOMALY":160.454,"EPHEMERIS_TYPE":0,"CLASSIFICATION_TYPE":"U","NORAD_CAT_ID":29779,"ELEMENT_SET_NO":999,"REV_AT_EPOCH":99019,"BSTAR":0.00027054938,"MEAN_MOTION_DOT":4.77e-6,"MEAN_MOTION_DDOT":0},{"OBJECT_NAME":"FENGYUN 1C DEB","OBJECT_ID":"1999-025BW","EPOCH":"2026-04-05T17:44:41.180064","MEAN_MOTION":14.21975419,"ECCENTRICITY":0.0040425,"INCLINATION":99.2808,"RA_OF_ASC_NODE":27.4512,"ARG_OF_PERICENTER":165.5551,"MEAN_ANOMALY":194.679,"EPHEMERIS_TYPE":0,"CLASSIFICATION_TYPE":"U","NORAD_CAT_ID":29780,"ELEMENT_SET_NO":999,"REV_AT_EPOCH":98698,"BSTAR":0.001674,"MEAN_MOTION_DOT":3.681e-5,"MEAN_MOTION_DDOT":0},{"OBJECT_NAME":"FENGYUN 1C DEB","OBJECT_ID":"1999-025BX","EPOCH":"2026-04-05T10:53:12.951168","MEAN_MOTION":14.05506667,"ECCENTRICITY":0.00709767,"INCLINATION":98.8187,"RA_OF_ASC_NODE":91.4537,"ARG_OF_PERICENTER":213.9974,"MEAN_ANOMALY":300.3617,"EPHEMERIS_TYPE":0,"CLASSIFICATION_TYPE":"U","NORAD_CAT_ID":29781,"ELEMENT_SET_NO":999,"REV_AT_EPOCH":98240,"BSTAR":0.00073593154,"MEAN_MOTION_DOT":1.18e-5,"MEAN_MOTION_DDOT":0},{"OBJECT_NAME":"FENGYUN 1C DEB","OBJECT_ID":"1999-025BY","EPOCH":"2026-04-05T18:14:43.562688","MEAN_MOTION":14.12212732,"ECCENTRICITY":0.0053388,"INCLINATION":99.0868,"RA_OF_ASC_NODE":155.9521,"ARG_OF_PERICENTER":240.6104,"MEAN_ANOMALY":240.488,"EPHEMERIS_TYPE":0,"CLASSIFICATION_TYPE":"U","NORAD_CAT_ID":29782,"ELEMENT_SET_NO":999,"REV_AT_EPOCH":98280,"BSTAR":0.0015602,"MEAN_MOTION_DOT":2.86e-5,"MEAN_MOTION_DDOT":0},{"OBJECT_NAME":"FENGYUN 1C DEB","OBJECT_ID":"1999-025CA","EPOCH":"2026-04-05T18:06:41.522400","MEAN_MOTION":14.30923243,"ECCENTRICITY":0.0059429,"INCLINATION":98.9494,"RA_OF_ASC_NODE":22.8457,"ARG_OF_PERICENTER":325.9438,"MEAN_ANOMALY":65.4515,"EPHEMERIS_TYPE":0,"CLASSIFICATION_TYPE":"U","NORAD_CAT_ID":29784,"ELEMENT_SET_NO":999,"REV_AT_EPOCH":99990,"BSTAR":0.00070918,"MEAN_MOTION_DOT":1.852e-5,"MEAN_MOTION_DDOT":0}]
