FENGYUN 1C DEB          
1 29763U 99025BD  26095.52889545  .00000467  00000+0  27882-3 0  9996
2 29763  98.7768  76.6997 0126526 219.7022 256.5636 14.07986589986512
FENGYUN 1C DEB          
1 29765U 99025BF  26095.81714242  .00000074  00000+0  74865-4 0  9999
2 29765  98.8200 115.3943 0059157 133.8524  39.9379 14.02168802983492
FENGYUN 1C DEB          
1 29766U 99025BG  26095.79928927  .00002577  00000+0  16974-2 0  9999
2 29766  98.6956  44.2819 0146734 331.7954  56.7344 13.97533001973976
FENGYUN 1C DEB          
1 29767U 99025BH  26095.84185425  .00005678  00000+0  22020-2 0  9998
2 29767  98.2092  58.7212 0329156  95.7535 297.4612 14.04548102972017
FENGYUN 1C DEB          
1 29769U 99025BK  26095.60150771  .00003611  00000+0  18380-2 0  9999
2 29769  99.0915 159.9156 0094827 168.5067 191.8301 14.14145924982903
FENGYUN 1C DEB          
1 29770U 99025BL  26095.70046314  .00002961  00000+0  13639-2 0  9998
2 29770  98.8341 176.2687 0060263 305.3377 207.2521 14.20892026987043
FENGYUN 1C DEB          
1 29772U 99025BN  26095.51091399  .00001934  00000+0  11570-2 0  9993
2 29772  98.3836 300.9423 0136344 328.4021  60.1823 14.03653108978519
FENGYUN 1C DEB          
1 29773U 99025BP  26095.39030347  .00001095  00000+0  45648-3 0  9998
2 29773  99.0025 257.3084 0046165 322.7893  66.8238 14.27847203998197
FENGYUN 1C DEB          
1 29774U 99025BQ  26095.86718715  .00000448  00000+0  21751-3 0  9993
2 29774  99.0910  44.7127 0050539 156.2227 271.8622 14.22854948996987
FENGYUN 1C DEB          
1 29776U 99025BS  26095.84573959  .00000219  00000+0  15416-3 0  9999
2 29776  98.7581 124.2656 0022737 310.9793 223.8214 14.07846283986851
FENGYUN 1C DEB          
1 29777U 99025BT  26095.67212459  .00000167  00000+0  16041-3 0  9993
2 29777  99.2612 157.5705 0092008 261.9789 219.6573 13.92150276976263
FENGYUN 1C DEB          
1 29779U 99025BV  26095.49259203  .00000477  00000+0  27055-3 0  9994
2 29779  98.6747 108.3315 0062785 199.4239 160.4540 14.13567496990197
FENGYUN 1C DEB          
1 29780U 99025BW  26095.73936551  .00003681  00000+0  16740-2 0  9999
2 29780  99.2808  27.4512 0040425 165.5551 194.6790 14.21975419986987
FENGYUN 1C DEB          
1 29781U 99025BX  26095.45362212  .00001180  00000+0  73593-3 0  9998
2 29781  98.8187  91.4537 0070976 213.9974 300.3617 14.05506667982406
FENGYUN 1C DEB          
1 29782U 99025BY  26095.76022642  .00002860  00000+0  15602-2 0  9995
2 29782  99.0868 155.9521 0053388 240.6104 240.4880 14.12212732982800
FENGYUN 1C DEB          
1 29784U 99025CA  26095.75464725  .00001852  00000+0  70918-3 0  9990
2 29784  98.9494  22.8457 0059429 325.9438  65.4515 14.30923243999909
